STARLINK-31939          
1 60026U 24111L   26068.28194314 -.00000343  00000+0  56139-6 0  9997
2 60026  53.1604  77.3344 0001283  95.2030 264.9118 15.30189391 98970
JINJUSAT-1B             
1 63210U 25052A   26068.66363707  .00019955  00000+0  68430-3 0  9998
2 63210  97.4113 325.4613 0005550  82.1930 277.9941 15.30194857 54866
